start=new Date('2021-11-01T00:00:00.000Z').valueOf();
sats=[{"PERIAPSIS":"545.653","DECAY_DATE":null,"BSTAR":"0.00004067800000","SEMIMAJOR_AXIS":"6925.355","RCS_SIZE":"LARGE","INCLINATION":"53.0547","PERIOD":"95.592","OBJECT_ID":"2021-018AY","TIME_SYSTEM":"UTC","OBJECT_NAME":"STARLINK-2423","CENTER_NAME":"EARTH","ELEMENT_SET_NO":"999","FILE":"3194693","MEAN_MOTION":"15.06397963","REF_FRAME":"TEME","TLE_LINE1":"1 47833U 21018AY  21304.38385908  .00000324  00000-0  40678-4 0  9999","LAUNCH_DATE":"2021-03-11","RA_OF_ASC_NODE":"190.7759","ECCENTRICITY":"0.00022620","ARG_OF_PERICENTER":"62.4368","TLE_LINE2":"2 47833  53.0547 190.7759 0002262  62.4368 297.6851 15.06397963 36567","NORAD_CAT_ID":"47833","GP_ID":"188580512","MEAN_MOTION_DDOT":"0.0000000000000","EPOCH":"2021-10-31T09:12:45.424512","MEAN_ANOMALY":"297.6851","MEAN_MOTION_DOT":"0.00000324","OBJECT_TYPE":"PAYLOAD","SITE":"AFETR","MEAN_ELEMENT_THEORY":"SGP4","REV_AT_EPOCH":"3656","APOAPSIS":"548.786","COUNTRY_CODE":"US","EPHEMERIS_TYPE":"0","CLASSIFICATION_TYPE":"U"},{"BSTAR":"0.00008371100000","DECAY_DATE":null,"PERIAPSIS":"545.995","OBJECT_ID":"2021-018AZ","PERIOD":"95.593","INCLINATION":"53.0554","RCS_SIZE":"LARGE","SEMIMAJOR_AXIS":"6925.374","MEAN_MOTION":"15.06391709","FILE":"3194950","ELEMENT_SET_NO":"999","CENTER_NAME":"EARTH","OBJECT_NAME":"STARLINK-2424","TIME_SYSTEM":"UTC","LAUNCH_DATE":"2021-03-11","TLE_LINE1":"1 47834U 21018AZ  21304.85934439  .00000965  00000-0  83711-4 0  9997","REF_FRAME":"TEME","TLE_LINE2":"2 47834  53.0554 188.6419 0001796  79.6682 280.4509 15.06391709 37029","ARG_OF_PERICENTER":"79.6682","ECCENTRICITY":"0.00017960","RA_OF_ASC_NODE":"188.6419","MEAN_MOTION_DOT":"0.00000965","MEAN_ANOMALY":"280.4509","EPOCH":"2021-10-31T20:37:27.355296","MEAN_MOTION_DDOT":"0.0000000000000","GP_ID":"188607525","NORAD_CAT_ID":"47834","REV_AT_EPOCH":"3702","MEAN_ELEMENT_THEORY":"SGP4","SITE":"AFETR","OBJECT_TYPE":"PAYLOAD","CLASSIFICATION_TYPE":"U","COUNTRY_CODE":"US","EPHEMERIS_TYPE":"0","APOAPSIS":"548.483"},{"TIME_SYSTEM":"UTC","OBJECT_NAME":"STARLINK-2425","CENTER_NAME":"EARTH","ELEMENT_SET_NO":"999","FILE":"3194950","MEAN_MOTION":"15.06407210","REF_FRAME":"TEME","TLE_LINE1":"1 47835U 21018BA  21304.80816805  .00001969  00000-0  15104-3 0  9994","LAUNCH_DATE":"2021-03-11","PERIAPSIS":"545.991","DECAY_DATE":null,"BSTAR":"0.00015104000000","SEMIMAJOR_AXIS":"6925.326","RCS_SIZE":"LARGE","INCLINATION":"53.0531","PERIOD":"95.592","OBJECT_ID":"2021-018BA","OBJECT_TYPE":"PAYLOAD","MEAN_ELEMENT_THEORY":"SGP4","SITE":"AFETR","REV_AT_EPOCH":"3688","APOAPSIS":"548.392","EPHEMERIS_TYPE":"0","COUNTRY_CODE":"US","CLASSIFICATION_TYPE":"U","RA_OF_ASC_NODE":"193.8972","ECCENTRICITY":"0.00017340","ARG_OF_PERICENTER":"69.5638","TLE_LINE2":"2 47835  53.0531 193.8972 0001734  69.5638 290.5537 15.06407210 36889","NORAD_CAT_ID":"47835","GP_ID":"188607769","MEAN_MOTION_DDOT":"0.0000000000000","EPOCH":"2021-10-31T19:23:45.719520","MEAN_ANOMALY":"290.5537","MEAN_MOTION_DOT":"0.00001969"},{"APOAPSIS":"548.400","COUNTRY_CODE":"US","EPHEMERIS_TYPE":"0","CLASSIFICATION_TYPE":"U","OBJECT_TYPE":"PAYLOAD","SITE":"AFETR","MEAN_ELEMENT_THEORY":"SGP4","REV_AT_EPOCH":"3698","NORAD_CAT_ID":"47836","MEAN_MOTION_DDOT":"0.0000000000000","EPOCH":"2021-10-31T22:27:33.453504","GP_ID":"188606023","MEAN_MOTION_DOT":"0.00000916","MEAN_ANOMALY":"291.5799","RA_OF_ASC_NODE":"188.2859","ECCENTRICITY":"0.00016900","TLE_LINE2":"2 47836  53.0540 188.2859 0001690  68.5370 291.5799 15.06394808 36985","ARG_OF_PERICENTER":"68.5370","REF_FRAME":"TEME","TLE_LINE1":"1 47836U 21018BB  21304.93580386  .00000916  00000-0  80416-4 0  9991","LAUNCH_DATE":"2021-03-11","OBJECT_NAME":"STARLINK-2426","TIME_SYSTEM":"UTC","CENTER_NAME":"EARTH","ELEMENT_SET_NO":"999","FILE":"3194950","MEAN_MOTION":"15.06394808","SEMIMAJOR_AXIS":"6925.364","INCLINATION":"53.0540","RCS_SIZE":"LARGE","OBJECT_ID":"2021-018BB","PERIOD":"95.592","DECAY_DATE":null,"PERIAPSIS":"546.059","BSTAR":"0.00008041600000"},{"EPOCH":"2021-10-31T21:17:15.336384","MEAN_MOTION_DDOT":"0.0000000000000","GP_ID":"188606273","NORAD_CAT_ID":"47837","MEAN_MOTION_DOT":"0.00001108","MEAN_ANOMALY":"283.0698","ECCENTRICITY":"0.00017260","RA_OF_ASC_NODE":"168.5218","TLE_LINE2":"2 47837  53.0566 168.5218 0001726  77.0484 283.0698 15.06406679 37261","ARG_OF_PERICENTER":"77.0484","COUNTRY_CODE":"US","EPHEMERIS_TYPE":"0","APOAPSIS":"548.388","CLASSIFICATION_TYPE":"U","MEAN_ELEMENT_THEORY":"SGP4","SITE":"AFETR","OBJECT_TYPE":"PAYLOAD","REV_AT_EPOCH":"3726","INCLINATION":"53.0566","RCS_SIZE":"LARGE","SEMIMAJOR_AXIS":"6925.328","OBJECT_ID":"2021-018BC","PERIOD":"95.592","DECAY_DATE":null,"PERIAPSIS":"545.998","BSTAR":"0.00009328000000","TLE_LINE1":"1 47837U 21018BC  21304.88698306  .00001108  00000-0  93280-4 0  9995","REF_FRAME":"TEME","LAUNCH_DATE":"2021-03-11","CENTER_NAME":"EARTH","ELEMENT_SET_NO":"999","OBJECT_NAME":"STARLINK-2427","TIME_SYSTEM":"UTC","MEAN_MOTION":"15.06406679","FILE":"3194950"},{"REF_FRAME":"TEME","TLE_LINE1":"1 47838U 21018BD  21304.83353288  .00001250  00000-0  10283-3 0  9997","LAUNCH_DATE":"2021-03-11","OBJECT_NAME":"STARLINK-2429","TIME_SYSTEM":"UTC","CENTER_NAME":"EARTH","ELEMENT_SET_NO":"999","FILE":"3194950","MEAN_MOTION":"15.06402138","SEMIMAJOR_AXIS":"6925.342","INCLINATION":"53.0543","RCS_SIZE":"LARGE","OBJECT_ID":"2021-018BD","PERIOD":"95.592","DECAY_DATE":null,"PERIAPSIS":"545.972","BSTAR":"0.00010283000000","APOAPSIS":"548.442","EPHEMERIS_TYPE":"0","COUNTRY_CODE":"US","CLASSIFICATION_TYPE":"U","OBJECT_TYPE":"PAYLOAD","MEAN_ELEMENT_THEORY":"SGP4","SITE":"AFETR","REV_AT_EPOCH":"3696","NORAD_CAT_ID":"47838","MEAN_MOTION_DDOT":"0.0000000000000","EPOCH":"2021-10-31T20:00:17.240832","GP_ID":"188607025","MEAN_MOTION_DOT":"0.00001250","MEAN_ANOMALY":"282.0132","RA_OF_ASC_NODE":"188.7656","ECCENTRICITY":"0.00017830","TLE_LINE2":"2 47838  53.0543 188.7656 0001783  78.1057 282.0132 15.06402138 36962","ARG_OF_PERICENTER":"78.1057"},{"ECCENTRICITY":"0.00016060","RA_OF_ASC_NODE":"159.6142","TLE_LINE2":"2 47839  53.0527 159.6142 0001606  54.0976 306.0171 15.27870238 37390","ARG_OF_PERICENTER":"54.0976","MEAN_MOTION_DDOT":"0.0000000000000","EPOCH":"2021-10-31T21:26:55.698144","GP_ID":"188607269","NORAD_CAT_ID":"47839","MEAN_MOTION_DOT":"0.00003053","MEAN_ANOMALY":"306.0171","SITE":"AFETR","MEAN_ELEMENT_THEORY":"SGP4","OBJECT_TYPE":"PAYLOAD","REV_AT_EPOCH":"3739","EPHEMERIS_TYPE":"0","COUNTRY_CODE":"US","APOAPSIS":"483.284","CLASSIFICATION_TYPE":"U","DECAY_DATE":null,"PERIAPSIS":"481.080","BSTAR":"0.00012338000000","INCLINATION":"53.0527","RCS_SIZE":"LARGE","SEMIMAJOR_AXIS":"6860.317","OBJECT_ID":"2021-018BE","PERIOD":"94.249","ELEMENT_SET_NO":"999","CENTER_NAME":"EARTH","OBJECT_NAME":"STARLINK-2431","TIME_SYSTEM":"UTC","MEAN_MOTION":"15.27870238","FILE":"3194950","TLE_LINE1":"1 47839U 21018BE  21304.89370021  .00003053  00000-0  12338-3 0  9994","REF_FRAME":"TEME","LAUNCH_DATE":"2021-03-11"},{"REV_AT_EPOCH":"3723","SITE":"AFETR","MEAN_ELEMENT_THEORY":"SGP4","OBJECT_TYPE":"PAYLOAD","CLASSIFICATION_TYPE":"U","EPHEMERIS_TYPE":"0","COUNTRY_CODE":"US","APOAPSIS":"548.530","ARG_OF_PERICENTER":"71.9969","TLE_LINE2":"2 47840  53.0547 169.1728 0001898  71.9969 288.1226 15.06399378 37235","ECCENTRICITY":"0.00018980","RA_OF_ASC_NODE":"169.1728","MEAN_ANOMALY":"288.1226","MEAN_MOTION_DOT":"0.00000941","GP_ID":"188606524","EPOCH":"2021-10-31T17:44:57.291936","MEAN_MOTION_DDOT":"0.0000000000000","NORAD_CAT_ID":"47840","MEAN_MOTION":"15.06399378","FILE":"3194950","CENTER_NAME":"EARTH","ELEMENT_SET_NO":"999","TIME_SYSTEM":"UTC","OBJECT_NAME":"STARLINK-2432","LAUNCH_DATE":"2021-03-11","TLE_LINE1":"1 47840U 21018BF  21304.73955199  .00000941  00000-0  82065-4 0  9992","REF_FRAME":"TEME","BSTAR":"0.00008206500000","PERIAPSIS":"545.901","DECAY_DATE":null,"PERIOD":"95.592","OBJECT_ID":"2021-018BF","RCS_SIZE":"LARGE","INCLINATION":"53.0547","SEMIMAJOR_AXIS":"6925.350"},{"REF_FRAME":"TEME","TLE_LINE1":"1 47841U 21018BG  21304.73586855  .00000473  00000-0  50692-4 0  9993","LAUNCH_DATE":"2021-03-11","TIME_SYSTEM":"UTC","OBJECT_NAME":"STARLINK-2433","CENTER_NAME":"EARTH","ELEMENT_SET_NO":"999","FILE":"3194950","MEAN_MOTION":"15.06390473","SEMIMAJOR_AXIS":"6925.378","RCS_SIZE":"LARGE","INCLINATION":"53.0543","PERIOD":"95.593","OBJECT_ID":"2021-018BG","PERIAPSIS":"546.181","DECAY_DATE":null,"BSTAR":"0.00005069200000","APOAPSIS":"548.304","EPHEMERIS_TYPE":"0","COUNTRY_CODE":"US","CLASSIFICATION_TYPE":"U","OBJECT_TYPE":"PAYLOAD","MEAN_ELEMENT_THEORY":"SGP4","SITE":"AFETR","REV_AT_EPOCH":"3723","NORAD_CAT_ID":"47841","GP_ID":"188606774","EPOCH":"2021-10-31T17:39:39.042720","MEAN_MOTION_DDOT":"0.0000000000000","MEAN_ANOMALY":"284.8142","MEAN_MOTION_DOT":"0.00000473","RA_OF_ASC_NODE":"169.1875","ECCENTRICITY":"0.00015330","ARG_OF_PERICENTER":"75.3017","TLE_LINE2":"2 47841  53.0543 169.1875 0001533  75.3017 284.8142 15.06390473 37230"},{"DECAY_DATE":null,"PERIAPSIS":"546.214","BSTAR":"0.00001018400000","SEMIMAJOR_AXIS":"6925.348","INCLINATION":"53.0560","RCS_SIZE":"LARGE","OBJECT_ID":"2021-018BH","PERIOD":"95.592","OBJECT_NAME":"STARLINK-2434","TIME_SYSTEM":"UTC","ELEMENT_SET_NO":"999","CENTER_NAME":"EARTH","FILE":"3194166","MEAN_MOTION":"15.06400203","REF_FRAME":"TEME","TLE_LINE1":"1 47842U 21018BH  21304.45665053 -.00000130  00000-0  10184-4 0  9994","LAUNCH_DATE":"2021-03-11","RA_OF_ASC_NODE":"200.4540","ECCENTRICITY":"0.00014430","TLE_LINE2":"2 47842  53.0560 200.4540 0001443  90.5329 269.5825 15.06400203 36435","ARG_OF_PERICENTER":"90.5329","NORAD_CAT_ID":"47842","EPOCH":"2021-10-31T10:57:34.605792","MEAN_MOTION_DDOT":"0.0000000000000","GP_ID":"188544270","MEAN_MOTION_DOT":"-0.00000130","MEAN_ANOMALY":"269.5825","OBJECT_TYPE":"PAYLOAD","SITE":"AFETR","MEAN_ELEMENT_THEORY":"SGP4","REV_AT_EPOCH":"3643","APOAPSIS":"548.212","EPHEMERIS_TYPE":"0","COUNTRY_CODE":"US","CLASSIFICATION_TYPE":"U"}];
